[{"OBJECT_NAME":"COSMOS 2547","OBJECT_ID":"2020-075A","EPOCH":"2026-03-27T18:17:20.941152","MEAN_MOTION":2.13100219,"ECCENTRICITY":0.00073709,"INCLINATION":64.5985,"RA_OF_ASC_NODE":195.1905,"ARG_OF_PERICENTER":232.5213,"MEAN_ANOMALY":127.4084,"EPHEMERIS_TYPE":0,"CLASSIFICATION_TYPE":"U","NORAD_CAT_ID":46805,"ELEMENT_SET_NO":999,"REV_AT_EPOCH":4217,"BSTAR":0,"MEAN_MOTION_DOT":-3.1e-7,"MEAN_MOTION_DDOT":0},{"OBJECT_NAME":"GPS BIII-4","OBJECT_ID":"2020-078A","EPOCH":"2026-03-28T23:52:38.890848","MEAN_MOTION":2.00565116,"ECCENTRICITY":0.0069596,"INCLINATION":53.9956,"RA_OF_ASC_NODE":214.0294,"ARG_OF_PERICENTER":204.9521,"MEAN_ANOMALY":153.5047,"EPHEMERIS_TYPE":0,"CLASSIFICATION_TYPE":"U","NORAD_CAT_ID":46826,"ELEMENT_SET_NO":999,"REV_AT_EPOCH":3989,"BSTAR":0,"MEAN_MOTION_DOT":-4.2e-7,"MEAN_MOTION_DDOT":0},{"OBJECT_NAME":"GSAT0223 (GALILEO 27)","OBJECT_ID":"2021-116A","EPOCH":"2026-03-26T13:48:11.384928","MEAN_MOTION":1.70475251,"ECCENTRICITY":0.0001802,"INCLINATION":57.1864,"RA_OF_ASC_NODE":343.9082,"ARG_OF_PERICENTER":284.715,"MEAN_ANOMALY":254.2688,"EPHEMERIS_TYPE":0,"CLASSIFICATION_TYPE":"U","NORAD_CAT_ID":49809,"ELEMENT_SET_NO":999,"REV_AT_EPOCH":2677,"BSTAR":0,"MEAN_MOTION_DOT":-9.5e-7,"MEAN_MOTION_DDOT":0},{"OBJECT_NAME":"GSAT0224 (GALILEO 28)","OBJECT_ID":"2021-116B","EPOCH":"2026-03-24T01:06:44.149248","MEAN_MOTION":1.70475197,"ECCENTRICITY":0.00012871,"INCLINATION":57.188,"RA_OF_ASC_NODE":343.9758,"ARG_OF_PERICENTER":309.9434,"MEAN_ANOMALY":229.6785,"EPHEMERIS_TYPE":0,"CLASSIFICATION_TYPE":"U","NORAD_CAT_ID":49810,"ELEMENT_SET_NO":999,"REV_AT_EPOCH":2675,"BSTAR":0,"MEAN_MOTION_DOT":-8.5e-7,"MEAN_MOTION_DDOT":0},{"OBJECT_NAME":"GOES 18","OBJECT_ID":"2022-021A","EPOCH":"2026-03-29T00:04:38.606304","MEAN_MOTION":1.00272466,"ECCENTRICITY":4.56e-5,"INCLINATION":0.0499,"RA_OF_ASC_NODE":29.1378,"ARG_OF_PERICENTER":26.3797,"MEAN_ANOMALY":355.0404,"EPHEMERIS_TYPE":0,"CLASSIFICATION_TYPE":"U","NORAD_CAT_ID":51850,"ELEMENT_SET_NO":999,"REV_AT_EPOCH":578,"BSTAR":0,"MEAN_MOTION_DOT":7.7e-7,"MEAN_MOTION_DDOT":0},{"OBJECT_NAME":"COSMOS 2557 (706K)","OBJECT_ID":"2022-075A","EPOCH":"2026-03-28T20:46:20.794944","MEAN_MOTION":2.13101767,"ECCENTRICITY":0.0010906,"INCLINATION":64.3444,"RA_OF_ASC_NODE":317.3169,"ARG_OF_PERICENTER":283.614,"MEAN_ANOMALY":76.3199,"EPHEMERIS_TYPE":0,"CLASSIFICATION_TYPE":"U","NORAD_CAT_ID":52984,"ELEMENT_SET_NO":999,"REV_AT_EPOCH":2900,"BSTAR":0,"MEAN_MOTION_DOT":-3.1e-7,"MEAN_MOTION_DDOT":0},{"OBJECT_NAME":"METEOSAT-12 (MTG-I1)","OBJECT_ID":"2022-170C","EPOCH":"2026-03-29T04:28:29.025120","MEAN_MOTION":1.00272867,"ECCENTRICITY":0.0001843,"INCLINATION":0.7321,"RA_OF_ASC_NODE":25.5075,"ARG_OF_PERICENTER":290.4834,"MEAN_ANOMALY":297.3646,"EPHEMERIS_TYPE":0,"CLASSIFICATION_TYPE":"U","NORAD_CAT_ID":54743,"ELEMENT_SET_NO":999,"REV_AT_EPOCH":1217,"BSTAR":0,"MEAN_MOTION_DOT":-2.6e-7,"MEAN_MOTION_DDOT":0},{"OBJECT_NAME":"METEOR-M2 3","OBJECT_ID":"2023-091A","EPOCH":"2026-03-29T05:02:31.206624","MEAN_MOTION":14.24039656,"ECCENTRICITY":0.0004762,"INCLINATION":98.6172,"RA_OF_ASC_NODE":144.7933,"ARG_OF_PERICENTER":54.6253,"MEAN_ANOMALY":305.537,"EPHEMERIS_TYPE":0,"CLASSIFICATION_TYPE":"U","NORAD_CAT_ID":57166,"ELEMENT_SET_NO":999,"REV_AT_EPOCH":14313,"BSTAR":2.4072e-5,"MEAN_MOTION_DOT":1.2e-7,"MEAN_MOTION_DDOT":0},{"OBJECT_NAME":"COSMOS 2569 (703K)","OBJECT_ID":"2023-114A","EPOCH":"2026-03-28T12:59:13.416000","MEAN_MOTION":2.13103807,"ECCENTRICITY":0.00129072,"INCLINATION":65.2574,"RA_OF_ASC_NODE":75.3385,"ARG_OF_PERICENTER":293.4527,"MEAN_ANOMALY":66.4203,"EPHEMERIS_TYPE":0,"CLASSIFICATION_TYPE":"U","NORAD_CAT_ID":57517,"ELEMENT_SET_NO":999,"REV_AT_EPOCH":2054,"BSTAR":0,"MEAN_MOTION_DOT":4.1e-7,"MEAN_MOTION_DDOT":0},{"OBJECT_NAME":"METEOR-M2 4","OBJECT_ID":"2024-039A","EPOCH":"2026-03-29T04:54:16.132032","MEAN_MOTION":14.22420252,"ECCENTRICITY":0.0007923,"INCLINATION":98.6939,"RA_OF_ASC_NODE":48.5415,"ARG_OF_PERICENTER":47.2965,"MEAN_ANOMALY":312.8879,"EPHEMERIS_TYPE":0,"CLASSIFICATION_TYPE":"U","NORAD_CAT_ID":59051,"ELEMENT_SET_NO":999,"REV_AT_EPOCH":10789,"BSTAR":3.7532e-5,"MEAN_MOTION_DOT":4.0e-7,"MEAN_MOTION_DDOT":0},{"OBJECT_NAME":"GSAT0225 (GALILEO 29)","OBJECT_ID":"2024-079A","EPOCH":"2026-03-28T01:49:00.365952","MEAN_MOTION":1.70474547,"ECCENTRICITY":0.00027404,"INCLINATION":55.0678,"RA_OF_ASC_NODE":103.3445,"ARG_OF_PERICENTER":270.8462,"MEAN_ANOMALY":214.737,"EPHEMERIS_TYPE":0,"CLASSIFICATION_TYPE":"U","NORAD_CAT_ID":59598,"ELEMENT_SET_NO":999,"REV_AT_EPOCH":1193,"BSTAR":0,"MEAN_MOTION_DOT":3.9e-7,"MEAN_MOTION_DDOT":0},{"OBJECT_NAME":"GSAT0227 (GALILEO 30)","OBJECT_ID":"2024-079C","EPOCH":"2026-03-25T16:59:50.260704","MEAN_MOTION":1.70474585,"ECCENTRICITY":6.165e-5,"INCLINATION":55.0598,"RA_OF_ASC_NODE":103.4096,"ARG_OF_PERICENTER":12.6919,"MEAN_ANOMALY":347.3562,"EPHEMERIS_TYPE":0,"CLASSIFICATION_TYPE":"U","NORAD_CAT_ID":59600,"ELEMENT_SET_NO":999,"REV_AT_EPOCH":1194,"BSTAR":0,"MEAN_MOTION_DOT":3.2e-7,"MEAN_MOTION_DDOT":0},{"OBJECT_NAME":"GSAT0226 (GALILEO 31)","OBJECT_ID":"2024-167B","EPOCH":"2026-03-27T12:58:24.631968","MEAN_MOTION":1.70474116,"ECCENTRICITY":0.0001564,"INCLINATION":55.2106,"RA_OF_ASC_NODE":223.5582,"ARG_OF_PERICENTER":156.5708,"MEAN_ANOMALY":194.8874,"EPHEMERIS_TYPE":0,"CLASSIFICATION_TYPE":"U","NORAD_CAT_ID":61183,"ELEMENT_SET_NO":999,"REV_AT_EPOCH":945,"BSTAR":0,"MEAN_MOTION_DOT":-1.2e-7,"MEAN_MOTION_DDOT":0},{"OBJECT_NAME":"GSAT0234 (GALILEO 34)","OBJECT_ID":"2025-302C","EPOCH":"2026-03-27T16:42:04.337856","MEAN_MOTION":1.70474528,"ECCENTRICITY":0.000383,"INCLINATION":54.283,"RA_OF_ASC_NODE":104.4494,"ARG_OF_PERICENTER":286.8102,"MEAN_ANOMALY":76.5044,"EPHEMERIS_TYPE":0,"CLASSIFICATION_TYPE":"U","NORAD_CAT_ID":67162,"ELEMENT_SET_NO":999,"REV_AT_EPOCH":179,"BSTAR":0,"MEAN_MOTION_DOT":3.6e-7,"MEAN_MOTION_DDOT":0}]
